[{"OBJECT_NAME":"ONEWEB-0538","OBJECT_ID":"2023-043B","EPOCH":"2026-03-09T22:28:10.742016","MEAN_MOTION":13.16593549,"ECCENTRICITY":0.00019125,"INCLINATION":87.9002,"RA_OF_ASC_NODE":248.5147,"ARG_OF_PERICENTER":94.6574,"MEAN_ANOMALY":265.4776,"EPHEMERIS_TYPE":0,"CLASSIFICATION_TYPE":"U","NORAD_CAT_ID":56047,"ELEMENT_SET_NO":999,"REV_AT_EPOCH":14591,"BSTAR":0.00019303062,"MEAN_MOTION_DOT":8.7e-7,"MEAN_MOTION_DDOT":0},{"OBJECT_NAME":"NOVA 2","OBJECT_ID":"1988-052A","EPOCH":"2026-03-09T23:11:20.030784","MEAN_MOTION":13.22947678,"ECCENTRICITY":0.00318309,"INCLINATION":89.9782,"RA_OF_ASC_NODE":78.1217,"ARG_OF_PERICENTER":130.8768,"MEAN_ANOMALY":288.9552,"EPHEMERIS_TYPE":0,"CLASSIFICATION_TYPE":"U","NORAD_CAT_ID":19223,"ELEMENT_SET_NO":999,"REV_AT_EPOCH":82101,"BSTAR":0.00015204319,"MEAN_MOTION_DOT":7.3e-7,"MEAN_MOTION_DDOT":0}]
